{
  "type": "FeatureCollection",
  "features": [
    {
      "type": "Feature",
      "properties": {
        "norad_id": 33844,
        "name": "COSMOS 2251 DEB",
        "group": "cosmos-2251-debris",
        "lat": 49.949531792872,
        "lon": -173.28910009490755,
        "alt_km": 770.1603036048009,
        "timestamp": "2025-12-27T02:10:16.581858+00:00",
        "meta_object_name": "COSMOS 2251 DEB",
        "meta_object_id": "1993-036CM",
        "meta_epoch": "2025-12-26T19:42:25.098912",
        "meta_mean_motion": 14.33744102,
        "meta_eccentricity": 0.0047261,
        "meta_inclination": 74.0664,
        "meta_ra_of_asc_node": 27.07,
        "meta_arg_of_pericenter": 44.5378,
        "meta_mean_anomaly": 132.437,
        "meta_ephemeris_type": 0,
        "meta_classification_type": "U",
        "meta_norad_cat_id": 33844,
        "meta_element_set_no": 999,
        "meta_rev_at_epoch": 87927,
        "meta_bstar": 0.00037333,
        "meta_mean_motion_dot": 1.024e-05,
        "meta_mean_motion_ddot": 0,
        "tle_line1": "1 33844U 93036CM  25360.82112383  .00001024  00000+0  37333-3 0  9995",
        "tle_line2": "2 33844  74.0664  27.0700 0047261  44.5378 132.4370 14.33744102879270"
      },
      "geometry": {
        "type": "Point",
        "coordinates": [
          -173.28910009490755,
          49.949531792872
        ]
      }
    },
    {
      "type": "Feature",
      "properties": {
        "norad_id": 33848,
        "name": "COSMOS 2251 DEB",
        "group": "cosmos-2251-debris",
        "lat": 54.41982284295601,
        "lon": 127.34789859626963,
        "alt_km": 744.0472293707198,
        "timestamp": "2025-12-27T02:10:16.581869+00:00",
        "meta_object_name": "COSMOS 2251 DEB",
        "meta_object_id": "1993-036CR",
        "meta_epoch": "2025-12-26T16:26:41.147808",
        "meta_mean_motion": 14.44161732,
        "meta_eccentricity": 0.0042028,
        "meta_inclination": 74.0324,
        "meta_ra_of_asc_node": 331.6936,
        "meta_arg_of_pericenter": 23.589,
        "meta_mean_anomaly": 151.9548,
        "meta_ephemeris_type": 0,
        "meta_classification_type": "U",
        "meta_norad_cat_id": 33848,
        "meta_element_set_no": 999,
        "meta_rev_at_epoch": 88032,
        "meta_bstar": 0.0013081,
        "meta_mean_motion_dot": 4.511e-05,
        "meta_mean_motion_ddot": 0,
        "tle_line1": "1 33848U 93036CR  25360.68519847  .00004511  00000+0  13081-2 0  9996",
        "tle_line2": "2 33848  74.0324 331.6936 0042028  23.5890 151.9548 14.44161732880329"
      },
      "geometry": {
        "type": "Point",
        "coordinates": [
          127.34789859626963,
          54.41982284295601
        ]
      }
    },
    {
      "type": "Feature",
      "properties": {
        "norad_id": 33892,
        "name": "COSMOS 2251 DEB",
        "group": "cosmos-2251-debris",
        "lat": 51.50837395289605,
        "lon": 97.31784577186387,
        "alt_km": 756.0685658880402,
        "timestamp": "2025-12-27T02:10:16.581879+00:00",
        "meta_object_name": "COSMOS 2251 DEB",
        "meta_object_id": "1993-036CV",
        "meta_epoch": "2025-12-26T14:41:47.145408",
        "meta_mean_motion": 14.23382284,
        "meta_eccentricity": 0.0112013,
        "meta_inclination": 73.8026,
        "meta_ra_of_asc_node": 76.75,
        "meta_arg_of_pericenter": 105.2356,
        "meta_mean_anomaly": 21.3871,
        "meta_ephemeris_type": 0,
        "meta_classification_type": "U",
        "meta_norad_cat_id": 33892,
        "meta_element_set_no": 999,
        "meta_rev_at_epoch": 87152,
        "meta_bstar": 0.00061113,
        "meta_mean_motion_dot": 1.453e-05,
        "meta_mean_motion_ddot": 0,
        "tle_line1": "1 33892U 93036CV  25360.61235122  .00001453  00000+0  61113-3 0  9991",
        "tle_line2": "2 33892  73.8026  76.7500 0112013 105.2356  21.3871 14.23382284871520"
      },
      "geometry": {
        "type": "Point",
        "coordinates": [
          97.31784577186387,
          51.50837395289605
        ]
      }
    },
    {
      "type": "Feature",
      "properties": {
        "norad_id": 33894,
        "name": "COSMOS 2251 DEB",
        "group": "cosmos-2251-debris",
        "lat": 72.73568433883655,
        "lon": 77.24912585156687,
        "alt_km": 1537.7009580831336,
        "timestamp": "2025-12-27T02:10:16.581889+00:00",
        "meta_object_name": "COSMOS 2251 DEB",
        "meta_object_id": "1993-036CX",
        "meta_epoch": "2025-12-26T07:28:06.751200",
        "meta_mean_motion": 13.21329669,
        "meta_eccentricity": 0.0578513,
        "meta_inclination": 73.7663,
        "meta_ra_of_asc_node": 328.0775,
        "meta_arg_of_pericenter": 245.6983,
        "meta_mean_anomaly": 108.2665,
        "meta_ephemeris_type": 0,
        "meta_classification_type": "U",
        "meta_norad_cat_id": 33894,
        "meta_element_set_no": 999,
        "meta_rev_at_epoch": 80887,
        "meta_bstar": 0.00063858,
        "meta_mean_motion_dot": 6.11e-06,
        "meta_mean_motion_ddot": 0,
        "tle_line1": "1 33894U 93036CX  25360.31118925  .00000611  00000+0  63858-3 0  9994",
        "tle_line2": "2 33894  73.7663 328.0775 0578513 245.6983 108.2665 13.21329669808870"
      },
      "geometry": {
        "type": "Point",
        "coordinates": [
          77.24912585156687,
          72.73568433883655
        ]
      }
    },
    {
      "type": "Feature",
      "properties": {
        "norad_id": 33896,
        "name": "COSMOS 2251 DEB",
        "group": "cosmos-2251-debris",
        "lat": -71.73269122822266,
        "lon": 12.590526660223157,
        "alt_km": 767.2596245509812,
        "timestamp": "2025-12-27T02:10:16.581899+00:00",
        "meta_object_name": "COSMOS 2251 DEB",
        "meta_object_id": "1993-036CZ",
        "meta_epoch": "2025-12-26T18:54:44.191008",
        "meta_mean_motion": 14.19072892,
        "meta_eccentricity": 0.0127287,
        "meta_inclination": 73.7667,
        "meta_ra_of_asc_node": 131.1785,
        "meta_arg_of_pericenter": 304.6177,
        "meta_mean_anomaly": 213.3113,
        "meta_ephemeris_type": 0,
        "meta_classification_type": "U",
        "meta_norad_cat_id": 33896,
        "meta_element_set_no": 999,
        "meta_rev_at_epoch": 86939,
        "meta_bstar": 0.00071164,
        "meta_mean_motion_dot": 1.584e-05,
        "meta_mean_motion_ddot": 0,
        "tle_line1": "1 33896U 93036CZ  25360.78801147  .00001584  00000+0  71164-3 0  9991",
        "tle_line2": "2 33896  73.7667 131.1785 0127287 304.6177 213.3113 14.19072892869390"
      },
      "geometry": {
        "type": "Point",
        "coordinates": [
          12.590526660223157,
          -71.73269122822266
        ]
      }
    },
    {
      "type": "Feature",
      "properties": {
        "norad_id": 33899,
        "name": "COSMOS 2251 DEB",
        "group": "cosmos-2251-debris",
        "lat": -57.0187410669862,
        "lon": 32.17229034979476,
        "alt_km": 735.1769097141305,
        "timestamp": "2025-12-27T02:10:16.581910+00:00",
        "meta_object_name": "COSMOS 2251 DEB",
        "meta_object_id": "1993-036DC",
        "meta_epoch": "2025-12-26T05:20:53.655072",
        "meta_mean_motion": 14.61299819,
        "meta_eccentricity": 0.0055925,
        "meta_inclination": 74.0532,
        "meta_ra_of_asc_node": 59.9717,
        "meta_arg_of_pericenter": 118.6354,
        "meta_mean_anomaly": 298.2749,
        "meta_ephemeris_type": 0,
        "meta_classification_type": "U",
        "meta_norad_cat_id": 33899,
        "meta_element_set_no": 999,
        "meta_rev_at_epoch": 89036,
        "meta_bstar": 0.00077649,
        "meta_mean_motion_dot": 3.891e-05,
        "meta_mean_motion_ddot": 0,
        "tle_line1": "1 33899U 93036DC  25360.22284323  .00003891  00000+0  77649-3 0  9991",
        "tle_line2": "2 33899  74.0532  59.9717 0055925 118.6354 298.2749 14.61299819890364"
      },
      "geometry": {
        "type": "Point",
        "coordinates": [
          32.17229034979476,
          -57.0187410669862
        ]
      }
    },
    {
      "type": "Feature",
      "properties": {
        "norad_id": 33900,
        "name": "COSMOS 2251 DEB",
        "group": "cosmos-2251-debris",
        "lat": -6.609055314941567,
        "lon": 154.42252846166855,
        "alt_km": 688.5393656355627,
        "timestamp": "2025-12-27T02:10:16.581920+00:00",
        "meta_object_name": "COSMOS 2251 DEB",
        "meta_object_id": "1993-036DD",
        "meta_epoch": "2025-12-26T07:45:26.487936",
        "meta_mean_motion": 14.58395262,
        "meta_eccentricity": 0.0046302,
        "meta_inclination": 74.0196,
        "meta_ra_of_asc_node": 333.981,
        "meta_arg_of_pericenter": 122.0505,
        "meta_mean_anomaly": 357.6558,
        "meta_ephemeris_type": 0,
        "meta_classification_type": "U",
        "meta_norad_cat_id": 33900,
        "meta_element_set_no": 999,
        "meta_rev_at_epoch": 89234,
        "meta_bstar": 0.00044466,
        "meta_mean_motion_dot": 2.062e-05,
        "meta_mean_motion_ddot": 0,
        "tle_line1": "1 33900U 93036DD  25360.32322324  .00002062  00000+0  44466-3 0  9999",
        "tle_line2": "2 33900  74.0196 333.9810 0046302 122.0505 357.6558 14.58395262892341"
      },
      "geometry": {
        "type": "Point",
        "coordinates": [
          154.42252846166855,
          -6.609055314941567
        ]
      }
    }
  ]
}